[{"OBJECT_NAME":"VNREDSAT 1","OBJECT_ID":"2013-021B","EPOCH":"2026-03-09T23:27:54.067104","MEAN_MOTION":14.6507341,"ECCENTRICITY":0.00016268,"INCLINATION":97.921,"RA_OF_ASC_NODE":126.138,"ARG_OF_PERICENTER":85.4971,"MEAN_ANOMALY":274.6418,"EPHEMERIS_TYPE":0,"CLASSIFICATION_TYPE":"U","NORAD_CAT_ID":39160,"ELEMENT_SET_NO":999,"REV_AT_EPOCH":68576,"BSTAR":0.00011871025,"MEAN_MOTION_DOT":5.92e-6,"MEAN_MOTION_DDOT":0},{"OBJECT_NAME":"DELTA 1 R\/B","OBJECT_ID":"1989-089B","EPOCH":"2026-03-09T13:14:40.767936","MEAN_MOTION":14.50662814,"ECCENTRICITY":0.00704638,"INCLINATION":97.0705,"RA_OF_ASC_NODE":276.0125,"ARG_OF_PERICENTER":122.4096,"MEAN_ANOMALY":238.3945,"EPHEMERIS_TYPE":0,"CLASSIFICATION_TYPE":"U","NORAD_CAT_ID":20323,"ELEMENT_SET_NO":999,"REV_AT_EPOCH":89571,"BSTAR":0.00011170257,"MEAN_MOTION_DOT":4.18e-6,"MEAN_MOTION_DDOT":0}]
